{"spkid": "20455687", "covariance": {"epoch": "2456483.5", "labels": ["e", "q", "tp", "node", "peri", "i"], "data": [["1.394847786253052E-15", "-2.692444582800466E-15", "5.445638393810036E-13", "-1.074098710969932E-13", "3.639205267479954E-13", "-1.003729968261355E-14"], ["-2.692444582800466E-15", "5.25147556076007E-15", "-6.754487115028823E-13", "1.736288679404143E-13", "-5.29375475162954E-13", "3.26887640755903E-14"], ["5.445638393810036E-13", "-6.754487115028823E-13", "3.073295956768768E-9", "-5.092940649011888E-10", "1.763893747758836E-9", "8.419455341061656E-11"], ["-1.074098710969932E-13", "1.736288679404143E-13", "-5.092940649011888E-10", "1.3274282385501E-9", "-1.503302677853228E-9", "2.530494396749332E-11"], ["3.639205267479954E-13", "-5.29375475162954E-13", "1.763893747758836E-9", "-1.503302677853228E-9", "2.258897908745342E-9", "1.195444944444682E-11"], ["-1.003729968261355E-14", "3.26887640755903E-14", "8.419455341061656E-11", "2.530494396749332E-11", "1.195444944444682E-11", "6.567472730505886E-11"]], "elements": [{"sigma": 3.73476610546504e-08, "name": "e", "units": null, "title": "eccentricity", "value": ".4800128966235574", "label": "e"}, {"units": "au", "title": "perihelion distance", "value": "1.028522373642195", "name": "q", "sigma": 7.24670653522003e-08, "label": "q"}, {"label": "tp", "value": "2456577.502435187173", "title": "time of perihelion passage", "units": "TDB", "sigma": 5.54373155624329e-05, "name": "tp"}, {"sigma": 3.64338886004514e-05, "name": "om", "units": "deg", "title": "longitude of the ascending node", "value": "103.0791997084465", "label": "node"}, {"sigma": 4.75278645506543e-05, "name": "w", "title": "argument of perihelion", "value": "154.9524202535641", "units": "deg", "label": "peri"}, {"sigma": 8.10399452770415e-06, "name": "i", "units": "deg", "title": "inclination", "value": "14.18653119982924", "label": "i"}]}, "elements": [{"label": "e", "units": null, "value": ".4799197251805168", "title": "eccentricity", "sigma": "3.6995E-8", "name": "e"}, {"units": "au", "value": "1.977981600915695", "title": "semi-major axis", "sigma": "1.4465E-8", "name": "a", "label": "a"}, {"label": "q", "units": "au", "title": "perihelion distance", "value": "1.028709214592116", "sigma": "7.1903E-8", "name": "q"}, {"label": "i", "units": "deg", "title": "inclination; angle with respect to x-y ecliptic plane", "value": "14.19172292454275", "name": "i", "sigma": "8.1046E-6"}, {"label": "node", "units": "deg", "value": "103.0003224253199", "title": "longitude of the ascending node", "sigma": "3.6397E-5", "name": "om"}, {"label": "peri", "sigma": "4.7498E-5", "name": "w", "value": "154.9639195746369", "title": "argument of perihelion", "units": "deg"}, {"units": "deg", "title": "mean anomaly", "value": "197.957740296971", "name": "ma", "sigma": "3.711E-5", "label": "M"}, {"name": "tp", "sigma": ".00010972", "units": "TDB", "value": "2461657.859377605386", "title": "time of perihelion passage", "label": "tp"}, {"label": "period", "name": "per", "sigma": "1.1146E-5", "title": "sidereal orbital period", "value": "1016.089113047967", "units": "d"}, {"label": "n", "sigma": "3.8866E-9", "name": "n", "title": "mean motion", "value": ".3542996331494059", "units": "deg/d"}, {"units": "au", "value": "2.927253987239275", "title": "aphelion distance", "sigma": "2.1408E-8", "name": "ad", "label": "Q"}], "epoch": "2461200.5"}